NORAD_CAT_ID,OBJECT_NAME,OBJECT_TYPE,EPOCH,MEAN_MOTION,ECCENTRICITY,INCLINATION,RA_OF_ASC_NODE,ARG_OF_PERICENTER,MEAN_ANOMALY,BSTAR,MEAN_MOTION_DOT,MEAN_MOTION_DDOT,TLE_LINE0,TLE_LINE1,TLE_LINE2,SEMIMAJOR_AXIS,PERIOD,APOGEE,PERIGEE,DECAYED
55760.0,STARLINK-5532,PAYLOAD,2023-05-22 20:29:56,14.98337545,0.0002799,69.999,300.6799,270.2735,89.8103,3.3712e-05,3.09e-06,0.0,0 STARLINK-5532,1 55760U 23028V   23142.85413143  .00000309  00000-0  33712-4 0  9991,2 55760  69.9990 300.6799 0002799 270.2735  89.8103 14.98337545 12982,6950.17,96.107,573.98,570.089,0.0
55760.0,STARLINK-5532,PAYLOAD,2023-05-23 12:31:18,14.98323055,0.0002806,69.999,298.9965,270.1641,89.9196,7.264e-05,7.74e-06,0.0,0 STARLINK-5532,1 55760U 23028V   23143.52173961  .00000774  00000-0  72640-4 0  9996,2 55760  69.9990 298.9965 0002806 270.1641  89.9196 14.98323055 13075,6950.214,96.107,574.03,570.129,0.0
55760.0,STARLINK-5532,PAYLOAD,2023-05-23 20:31:58,14.98327424,0.0002805,69.9991,298.1548,270.0277,90.0561,8.1643e-05,8.81e-06,0.0,0 STARLINK-5532,1 55760U 23028V   23143.85553732  .00000881  00000-0  81643-4 0  9992,2 55760  69.9991 298.1548 0002805 270.0277  90.0561 14.98327424 13138,6950.201,96.107,574.015,570.116,0.0
55760.0,STARLINK-5532,PAYLOAD,2023-05-24 09:21:02,14.9833419,0.0002726,69.9994,296.8082,270.5035,89.5812,-2.6653e-05,-4.11e-06,0.0,0 STARLINK-5532,1 55760U 23028V   23144.38961645 -.00000411  00000-0 -26653-4 0  9998,2 55760  69.9994 296.8082 0002726 270.5035  89.5812 14.98334190 13206,6950.18,96.107,573.94,570.15,0.0
55760.0,STARLINK-5532,PAYLOAD,2023-05-24 14:09:27,14.98334048,0.0002729,69.9994,296.3032,270.5212,89.5634,-2.5919e-05,-4.02e-06,0.0,0 STARLINK-5532,1 55760U 23028V   23144.58989588 -.00000402  00000-0 -25919-4 0  9990,2 55760  69.9994 296.3032 0002729 270.5212  89.5634 14.98334048 13244,6950.18,96.107,573.942,570.149,0.0
55760.0,STARLINK-5532,PAYLOAD,2023-05-25 14:11:28,14.98328862,0.0002815,69.9995,293.7784,268.0642,92.0195,-1.6923e-05,-2.95e-06,0.0,0 STARLINK-5532,1 55760U 23028V   23145.59129745 -.00000295  00000-0 -16923-4 0  9998,2 55760  69.9995 293.7784 0002815 268.0642  92.0195 14.98328862 13399,6950.196,96.107,574.018,570.105,0.0
55760.0,STARLINK-5532,PAYLOAD,2023-05-25 18:59:52,14.9832865,0.0002817,69.9995,293.2734,268.1175,91.9661,-1.7984e-05,-3.08e-06,0.0,0 STARLINK-5532,1 55760U 23028V   23145.79157774 -.00000308  00000-0 -17984-4 0  9996,2 55760  69.9995 293.2734 0002817 268.1175  91.9661 14.98328650 13417,6950.197,96.107,574.02,570.104,0.0
55760.0,STARLINK-5532,PAYLOAD,2023-05-26 14:13:28,14.98331613,0.0002811,69.9999,291.2536,266.1878,93.8959,1.2535e-05,5.7e-07,0.0,0 STARLINK-5532,1 55760U 23028V   23146.59269432  .00000057  00000-0  12535-4 0  9996,2 55760  69.9999 291.2536 0002811 266.1878  93.8959 14.98331613 13549,6950.188,96.107,574.007,570.099,0.0
55760.0,STARLINK-5532,PAYLOAD,2023-05-26 19:01:52,14.98332567,0.0002854,69.9999,290.7483,267.1007,92.9826,-5.0557e-06,-1.53e-06,0.0,0 STARLINK-5532,1 55760U 23028V   23146.79297390 -.00000153  00000-0 -50557-5 0  9998,2 55760  69.9999 290.7483 0002854 267.1007  92.9826 14.98332567 13571,6950.185,96.107,574.034,570.066,0.0
55760.0,STARLINK-5532,PAYLOAD,2023-05-27 19:03:54,14.98328035,0.0002976,69.9998,288.2238,267.928,92.1539,-1.4154e-06,-1.1e-06,0.0,0 STARLINK-5532,1 55760U 23028V   23147.79437682 -.00000110  00000-0 -14154-5 0  9995,2 55760  69.9998 288.2238 0002976 267.9280  92.1539 14.98328035 13710,6950.199,96.107,574.132,569.996,0.0
55760.0,STARLINK-5532,PAYLOAD,2023-05-28 03:04:34,14.98331193,0.0003006,69.9997,287.3812,267.9202,92.1613,1.9012e-05,1.34e-06,0.0,0 STARLINK-5532,1 55760U 23028V   23148.12817411  .00000134  00000-0  19012-4 0  9996,2 55760  69.9997 287.3812 0003006 267.9202  92.1613 14.98331193 13774,6950.189,96.107,574.143,569.965,0.0
55760.0,STARLINK-5532,PAYLOAD,2023-05-28 11:05:14,14.98335341,0.0003117,69.9994,286.5395,268.6812,91.399,2.0264e-05,1.49e-06,0.0,0 STARLINK-5532,1 55760U 23028V   23148.46197047  .00000149  00000-0  20264-4 0  9996,2 55760  69.9994 286.5395 0003117 268.6812  91.3990 14.98335341 13819,6950.176,96.107,574.208,569.875,0.0
55760.0,STARLINK-5532,PAYLOAD,2023-05-28 19:05:54,14.98338936,0.000312,69.9993,285.6983,269.2349,90.8453,5.9525e-05,6.17e-06,0.0,0 STARLINK-5532,1 55760U 23028V   23148.79576570  .00000617  00000-0  59525-4 0  9996,2 55760  69.9993 285.6983 0003120 269.2349  90.8453 14.98338936 13874,6950.165,96.106,574.199,569.862,0.0
55760.0,STARLINK-5532,PAYLOAD,2023-05-29 09:31:07,14.98328694,0.0003094,69.9994,284.1833,269.2049,90.8755,-1.2581e-05,-2.43e-06,0.0,0 STARLINK-5532,1 55760U 23028V   23149.39661289 -.00000243  00000-0 -12581-4 0  9993,2 55760  69.9994 284.1833 0003094 269.2049  90.8755 14.98328694 13954,6950.197,96.107,574.212,569.912,0.0
55760.0,STARLINK-5532,PAYLOAD,2023-05-29 14:19:31,14.9832851,0.00031,69.9995,283.6784,269.1919,90.8885,-1.4969e-05,-2.72e-06,0.0,0 STARLINK-5532,1 55760U 23028V   23149.59689303 -.00000272  00000-0 -14969-4 0  9996,2 55760  69.9995 283.6784 0003100 269.1919  90.8885 14.98328510 13992,6950.197,96.107,574.217,569.908,0.0
55760.0,STARLINK-5532,PAYLOAD,2023-05-29 19:07:55,14.98328876,0.0003037,69.9998,283.1742,269.4229,90.6582,9.8858e-06,2.5e-07,0.0,0 STARLINK-5532,1 55760U 23028V   23149.79717225  .00000025  00000-0  98858-5 0  9997,2 55760  69.9998 283.1742 0003037 269.4229  90.6582 14.98328876 14022,6950.196,96.107,574.172,569.951,0.0
55760.0,STARLINK-5532,PAYLOAD,2023-05-30 11:09:16,14.98339377,0.0002638,69.9996,281.4897,271.0697,89.0159,-0.00016642,-2.079e-05,0.0,0 STARLINK-5532,1 55760U 23028V   23150.46477059 -.00002079  00000-0 -16642-3 0  9993,2 55760  69.9996 281.4897 0002638 271.0697  89.0159 14.98339377 14127,6950.164,96.106,573.862,570.195,0.0
55760.0,STARLINK-5532,PAYLOAD,2023-05-30 19:09:55,14.9836514,0.0002592,69.9998,280.6483,264.5701,95.5162,-0.00054993,-6.654e-05,0.0,0 STARLINK-5532,1 55760U 23028V   23150.79856063 -.00006654  00000-0 -54993-3 0  9999,2 55760  69.9998 280.6483 0002592 264.5701  95.5162 14.98365140 14160,6950.084,96.105,573.751,570.148,0.0
55760.0,STARLINK-5532,PAYLOAD,2023-05-31 01:34:28,14.9833843,0.0003033,69.9998,279.9749,269.4282,90.6529,-0.00013333,-1.684e-05,0.0,0 STARLINK-5532,1 55760U 23028V   23151.06560721 -.00001684  00000-0 -13333-3 0  9994,2 55760  69.9998 279.9749 0003033 269.4282  90.6529 14.98338430 14205,6950.167,96.106,574.14,569.924,0.0
55760.0,STARLINK-5532,PAYLOAD,2023-05-31 11:11:17,14.98327064,0.0003095,69.9996,278.9654,267.2273,92.8532,-2.2798e-05,-3.65e-06,0.0,0 STARLINK-5532,1 55760U 23028V   23151.46617172 -.00000365  00000-0 -22798-4 0  9992,2 55760  69.9996 278.9654 0003095 267.2273  92.8532 14.98327064 14266,6950.202,96.107,574.218,569.916,0.0
55760.0,STARLINK-5532,PAYLOAD,2023-05-31 14:23:33,14.98327154,0.000308,69.9996,278.6291,265.8905,94.1902,-5.3799e-07,-9.9e-07,0.0,0 STARLINK-5532,1 55760U 23028V   23151.59969117 -.00000099  00000-0 -53799-6 0  9996,2 55760  69.9996 278.6291 0003080 265.8905  94.1902 14.98327154 14299,6950.202,96.107,574.207,569.926,0.0
55760.0,STARLINK-5532,PAYLOAD,2023-05-31 19:11:57,14.9833176,0.0002959,69.9997,278.124,262.93,97.1522,3.2628e-05,2.96e-06,0.0,0 STARLINK-5532,1 55760U 23028V   23151.79996713  .00000296  00000-0  32628-4 0  9993,2 55760  69.9997 278.1240 0002959 262.9300  97.1522 14.98331760 14323,6950.187,96.107,574.109,569.996,0.0
55760.0,STARLINK-5532,PAYLOAD,2023-06-01 01:36:30,14.98297313,0.000287,69.9995,277.4503,266.7071,93.3759,0.00054066,6.358e-05,0.0,0 STARLINK-5532,1 55760U 23028V   23152.06701869  .00006358  00000-0  54066-3 0  9994,2 55760  69.9995 277.4503 0002870 266.7071  93.3759 14.98297313 14352,6950.294,96.109,574.154,570.164,0.0
55760.0,STARLINK-5532,PAYLOAD,2023-06-01 11:13:18,14.98328376,0.0003069,69.9995,276.4407,270.4322,89.6485,-1.1778e-05,-2.34e-06,0.0,0 STARLINK-5532,1 55760U 23028V   23152.46757082 -.00000234  00000-0 -11778-4 0  9999,2 55760  69.9995 276.4407 0003069 270.4322  89.6485 14.98328376 14422,6950.198,96.107,574.196,569.93,0.0
55760.0,STARLINK-5532,PAYLOAD,2023-06-02 11:15:19,14.98324109,0.0003068,69.9994,273.9155,269.8035,90.2772,-1.4826e-05,-2.7e-06,0.0,0 STARLINK-5532,1 55760U 23028V   23153.46897441 -.00000270  00000-0 -14826-4 0  9991,2 55760  69.9994 273.9155 0003068 269.8035  90.2772 14.98324109 14567,6950.211,96.107,574.208,569.944,0.0
55760.0,STARLINK-5532,PAYLOAD,2023-06-02 17:39:51,14.98326989,0.0003108,69.9994,273.2425,270.2519,89.8284,-4.466e-05,-6.26e-06,0.0,0 STARLINK-5532,1 55760U 23028V   23153.73601407 -.00000626  00000-0 -44660-4 0  9990,2 55760  69.9994 273.2425 0003108 270.2519  89.8284 14.98326989 14614,6950.202,96.107,574.227,569.907,0.0
55760.0,STARLINK-5532,PAYLOAD,2023-06-03 09:41:11,14.98330006,0.0003129,69.9993,271.5595,270.7847,89.2953,4.3429e-05,4.25e-06,0.0,0 STARLINK-5532,1 55760U 23028V   23154.40361008  .00000425  00000-0  43429-4 0  9992,2 55760  69.9993 271.5595 0003129 270.7847  89.2953 14.98330006 14706,6950.193,96.107,574.233,569.883,0.0
55760.0,STARLINK-5532,PAYLOAD,2023-06-03 12:53:28,14.98329078,0.0003147,69.9994,271.2228,270.6656,89.4142,3.5098e-05,3.26e-06,0.0,0 STARLINK-5532,1 55760U 23028V   23154.53713088  .00000326  00000-0  35098-4 0  9998,2 55760  69.9994 271.2228 0003147 270.6656  89.4142 14.98329078 14736,6950.196,96.107,574.248,569.874,0.0
55760.0,STARLINK-5532,PAYLOAD,2023-06-03 17:41:52,14.98333717,0.0003154,69.9993,270.7172,269.2506,90.8292,3.5468e-05,3.3e-06,0.0,0 STARLINK-5532,1 55760U 23028V   23154.73740750  .00000330  00000-0  35468-4 0  9992,2 55760  69.9993 270.7172 0003154 269.2506  90.8292 14.98333717 14763,6950.181,96.107,574.238,569.854,0.0
55760.0,STARLINK-5532,PAYLOAD,2023-06-04 09:43:12,14.98327923,0.0003166,69.9995,269.0338,268.8357,91.2439,5.4284e-05,5.55e-06,0.0,0 STARLINK-5532,1 55760U 23028V   23155.40501037  .00000555  00000-0  54284-4 0  9996,2 55760  69.9995 269.0338 0003166 268.8357  91.2439 14.98327923 14852,6950.199,96.107,574.265,569.864,0.0
